1 31564U 99025BZF 18205.11626583 +.00009384 +00000-0 +92459-3 0  9998
2 31564 098.7526 330.0609 0000433 063.2367 296.8893 14.92296958590819
1 31565U 99025BZG 18205.22647498 +.00000650 +00000-0 +41490-3 0  9995
2 31565 100.7380 222.2523 0082371 029.0147 331.5557 14.06632834261963
1 31566U 99025BZH 18204.65478310 +.00000634 +00000-0 +33818-3 0  9994
2 31566 098.9436 174.7919 0029796 177.0142 236.7964 14.16770642580227
1 31567U 99025BZJ 18205.25682852 +.00000655 +00000-0 +64976-3 0  9992
2 31567 102.3068 313.9537 0214551 175.2935 185.0287 13.74117719302079
1 31568U 99025BZK 18205.14498390 +.00001137 +00000-0 +93580-3 0  9992
2 31568 102.0925 329.8660 0159216 190.6307 169.1458 13.86734320572014
1 31569U 99025BZL 18205.28469795 +.00000613 +00000-0 +57187-3 0  9996
2 31569 102.6095 131.5612 0204205 188.6920 327.5810 13.79072221563559
1 31570U 99025BZM 18204.95931486 +.00000143 +00000-0 +13526-3 0  9999
2 31570 102.6089 256.7880 0191109 270.5869 087.3386 13.96641767570375
1 31581U 99057PC  18204.66202881 +.00007326 +00000-0 +45240-3 0  9992
2 31581 098.2251 276.3835 0002132 024.2912 335.8416 15.10223459602391
1 31583U 99057PE  18205.08457462 +.00000780 +00000-0 +20238-3 0  9995
2 31583 098.4092 162.3562 0003012 081.7394 278.4143 14.52488553271281
1 31589U 99057PL  18205.18724413 +.00003035 +00000-0 +46038-3 0  9997
2 31589 098.2693 183.6615 0014612 276.0742 083.8801 14.74819148297976
1 31591U 99057PN  18205.22259805 +.00001545 +00000-0 +28837-3 0  9994
2 31591 098.3475 197.2436 0006677 278.2242 081.8204 14.66415422596268
1 31594U 99057PR  18205.19491615 +.00001215 +00000-0 +25449-3 0  9990
2 31594 098.3669 186.5951 0007856 006.3971 353.7328 14.61567669312460
1 31608U 99025BZN 18205.28874045 +.00000415 +00000-0 +76189-4 0  9992
2 31608 098.5837 218.1313 0225343 161.7817 199.1621 14.56481996592265
1 31609U 99025BZP 18203.39664477  .00000774  00000-0  54508-3 0  9997
2 31609  99.1437 163.2868 0102261 220.6823 294.8085 13.98701651569088
1 31611U 99025BZR 18201.79837792 +.00001438 +00000-0 +50551-3 0  9996
2 31611 098.9750 319.3121 0108775 291.1726 225.8684 14.33341454282333
1 31612U 99025BZS 18205.06586437 +.00000729 +00000-0 +81058-4 0  9997
2 31612 100.3675 304.6079 0181339 113.6848 248.3502 14.80953249598700
1 31613U 99025BZT 18205.23337930 +.00000357 +00000-0 +36980-3 0  9999
2 31613 098.4512 002.8725 0365344 338.3648 020.2390 13.55522269551769
1 31614U 99025BZU 18205.22984045 +.00000813 +00000-0 +35689-3 0  9996
2 31614 098.9796 305.6112 0065052 014.5857 015.0659 14.25320569576406
1 31615U 99025BZV 18205.10718918 +.00000798 +00000-0 +43171-3 0  9995
2 31615 099.1222 171.2876 0244490 321.8108 036.5952 14.01380390272348
1 31616U 99025BZW 18204.99223996 +.00001492 +00000-0 +45943-3 0  9990
2 31616 096.5895 278.1038 0107489 163.1148 197.3668 14.39137774584062
1 31617U 99025BZX 18185.24521414  .00000999  00000-0  28815-3 0  9993
2 31617  96.7065 359.3507 0137148 108.1489 253.4694 14.40699069585021
1 31618U 99025BZY 18204.06016210 +.00000066 +00000-0 +50295-4 0  9992
2 31618 099.4011 139.2764 0165854 350.1326 009.6602 14.16998251578803
1 31619U 99025BZZ 18205.12900937 +.00001120 +00000-0 +46543-3 0  9991
2 31619 099.1100 263.9974 0266696 138.8422 255.0220 14.11002369250533
1 31620U 99025CAA 18205.25193508 +.00000713 +00000-0 +38831-3 0  9993
2 31620 099.0396 213.4516 0027862 205.0240 154.9584 14.15334737275244
1 31622U 99025CAC 18205.54727897 +.00000634 +00000-0 +33415-3 0  9996
2 31622 098.9716 241.4701 0021362 186.3706 332.2645 14.17547690574117
1 31623U 99025CAD 18182.36117209  .00000075  00000-0  87833-4 0  9994
2 31623  97.6433 149.8963 0199892  13.0663 347.5567 13.80344642563147
1 31624U 99025CAE 18205.40025209 +.00000935 +00000-0 +30552-3 0  9994
2 31624 099.6790 004.1240 0055184 255.4623 133.8664 14.40530240583740
1 31625U 99025CAF 18205.53570896 +.00000025 +00000-0 +18476-4 0  9998
2 31625 098.8043 106.7498 0157490 257.1894 227.8282 14.51252087592347
1 31626U 99025CAG 18204.53292357 +.00001165 +00000-0 +47949-3 0  9993
2 31626 101.3046 312.8940 0031106 195.6778 164.3434 14.29578455252246
1 31627U 99025CAH 18204.93180149 +.00000372 +00000-0 +18187-3 0  9994
2 31627 098.7761 248.1019 0063184 101.0878 259.7414 14.22732675262989
1 31628U 99025CAJ 18205.17315798 +.00000111 +00000-0 +16306-3 0  9994
2 31628 102.2733 319.6624 0187870 092.2294 270.0368 13.75044861561164
1 31629U 99025CAK 18205.52917580 +.00001010 +00000-0 +75710-3 0  9994
2 31629 102.1529 062.7399 0131898 164.4127 196.1142 13.94155236566970
1 31630U 99025CAL 18203.33141327 +.00000402 +00000-0 +52085-4 0  9996
2 31630 097.8845 042.4156 0320168 312.1096 045.3285 14.56854923589804
1 31631U 99025CAM 18205.12183532 +.00000839 +00000-0 +48422-3 0  9993
2 31631 099.3078 298.0696 0190521 020.2421 340.6169 14.03172395568712
1 31632U 99025CAN 18205.37442394 +.00001766 +00000-0 +40353-3 0  9990
2 31632 099.0192 058.5386 0135656 255.1253 229.8443 14.51700399256690
1 31633U 99025CAP 18205.41163858 -.00000132 +00000-0 -57840-4 0  9999
2 31633 098.9863 261.4914 0068566 133.5857 227.1028 14.01162651573780
1 31634U 99025CAQ 18200.12164452  .00000024  00000-0  52719-4 0  9992
2 31634  99.3300 160.6121 0092274 247.1073 112.0325 13.92509655570010
1 31635U 99025CAR 18183.19934610  .00000784  00000-0  30656-3 0  9999
2 31635  99.4457 171.9917 0050269 278.1349  81.4131 14.32125761580945
1 31636U 99025CAS 18205.27381815 +.00001694 +00000-0 +83813-4 0  9992
2 31636 098.8898 016.5127 0162323 245.8663 112.5514 15.08981810607074
1 31637U 99025CAT 18205.61280257 +.00000883 +00000-0 +38305-3 0  9993
2 31637 099.1041 342.1299 0061332 082.7021 278.1123 14.25886003208653
1 31639U 99025CAV 18202.50282587  .00000024  00000-0  53707-4 0  9999
2 31639  98.7814 306.7067 0161635 285.5380 134.1604 13.84225394566976
1 31640U 99025CAW 18205.08605106 +.00001841 +00000-0 +12842-3 0  9995
2 31640 099.2349 067.8448 0182423 336.0839 023.1979 14.94720498601489
1 31642U 99025CAY 18205.19560933 +.00000135 +00000-0 +65929-4 0  9997
2 31642 098.6362 290.6187 0126540 273.3558 085.3155 14.28818846584505
1 31643U 99025CAZ 18176.92767661  .00000712  00000-0  50888-3 0  9991
2 31643  98.3356 192.3551 0104296  55.8400  60.2480 13.97483374567314
1 31644U 99025CBA 18204.10222486 +.00000290 +00000-0 +73063-4 0  9997
2 31644 098.6082 318.5605 0212372 096.6221 028.3362 14.46102279318826
1 31646U 99025CBC 18177.31733986  .00000168  00000-0  11961-3 0  9995
2 31646  98.9724 208.1723 0035383  11.4047 348.7917 14.10031227573176
1 31647U 99025CBD 18203.48845125  .00001102  00000-0  57881-3 0  9993
2 31647  98.0652 102.5526 0180123  61.7862 300.1368 14.07828973572698
1 31648U 99025CBE 18205.20936061 +.00000044 +00000-0 +87439-4 0  9993
2 31648 102.8149 001.4697 0070820 035.3669 325.2146 13.94970080569076
1 31649U 99025CBF 18203.99034048 +.00000611 +00000-0 +65637-3 0  9997
2 31649 098.1920 268.4678 0283178 197.1917 161.9484 13.60631878555842
1 31650U 99025CBG 18204.39192307 +.00001968 +00000-0 +53194-3 0  9998
2 31650 095.2166 259.3751 0237266 342.0882 017.2050 14.32942607251215
1 31652U 99025CBJ 18205.06795440 +.00002502 +00000-0 +69694-3 0  9999
2 31652 095.9367 320.5273 0127065 216.4512 142.7984 14.42184925582215
1 31653U 99025CBK 18170.56598013 +.00001301 +00000-0 +42076-3 0  9994
2 31653 096.6658 282.2079 0108763 331.5115 028.0158 14.36891281577718
1 31654U 99025CBL 16335.87924782 -.07214280  00000-0  00000+0 0  9993
2 31654  97.5658 298.9789 0078558  65.0753 295.9170 15.48867629478437
1 31655U 99025CBM 18205.01062708 +.00000324 +00000-0 +41580-3 0  9995
2 31655 099.2928 278.6564 0338615 125.9999 358.0447 13.47617092232434
1 31656U 99025CBN 18205.46102399 +.00000702 +00000-0 +34071-3 0  9993
2 31656 099.2255 021.0427 0032495 250.8488 137.4142 14.21567828579589
1 31657U 99025CBP 18205.54828838 -.00000066 +00000-0 +16384-5 0  9999
2 31657 102.2379 338.1810 0176032 016.5726 344.1071 13.80816429254933
1 31658U 99025CBQ 18204.89914510 +.00001206 +00000-0 +92161-3 0  9991
2 31658 098.1626 001.4444 0264636 223.2327 134.7787 13.79863915324505
1 31659U 99025CBR 18205.21521825 +.00000627 +00000-0 +11052-3 0  9998
2 31659 099.0594 202.1329 0179716 245.0509 113.1925 14.62034501589647
1 31660U 99025CBS 18204.94191195 +.00000139 +00000-0 +79814-4 0  9991
2 31660 098.6931 244.4746 0114492 095.5004 265.9244 14.20174501283346
1 31661U 99025CBT 18205.58782597 +.00000328 +00000-0 +20004-3 0  9991
2 31661 099.0436 237.4048 0068262 327.4157 185.1567 14.11920478575389
1 31662U 99025CBU 10221.73015106 -.00000041 +00000-0 +15524-5 0  9990
2 31662 098.9687 199.0028 0048105 056.7627 302.2132 14.03367415171755
1 31663U 99025CBV 18205.19457052 +.00000131 +00000-0 +26668-4 0  9990
2 31663 098.9133 205.1703 0220818 333.5196 025.4855 14.65816072596732
1 31664U 99025CBW 18205.55472011 -.00000062 +00000-0 -10389-4 0  9991
2 31664 098.8567 239.3399 0129352 208.5787 150.8249 14.06931435580358
1 31665U 99025CBX 18202.78029337  .00000129  00000-0  14570-3 0  9990
2 31665  98.4795 132.4104 0202198 319.2378  94.2054 13.77323657561274
1 31666U 99025CBY 18205.39268328 +.00000675 +00000-0 +25558-3 0  9990
2 31666 098.6964 274.5294 0058933 311.9470 047.6699 14.33542973583516
1 31667U 99025CBZ 18205.15706570 +.00000056 +00000-0 +47024-4 0  9997
2 31667 098.9103 316.1875 0052593 240.7939 118.7971 14.20414455581013
1 31668U 99025CCA 18177.04176528 +.00002260 +00000-0 +56324-3 0  9999
2 31668 096.5449 267.9685 0098669 115.7825 245.3595 14.49371198581096
1 31670U 99025CCC 18205.29308002 +.00000596 +00000-0 +64576-3 0  9993
2 31670 098.4216 029.7047 0266304 254.0441 103.1217 13.62270560554796
1 31671U 99025CCD 11106.28784769 +.00000788 +00000-0 +53306-3 0  9996
2 31671 099.1906 122.5605 0101331 133.2425 228.3225 14.00829917204746
1 31672U 99025CCE 18202.03833191  .00000570  00000-0  23714-3 0  9997
2 31672  98.8357 293.6871 0156681 302.6726  55.9421 14.23992665583212
1 31673U 99025CCF 18205.36158997 +.00000040 +00000-0 +34035-4 0  9992
2 31673 099.3414 170.6142 0131368 228.9695 130.0069 14.27947473586709
